CCSDS_OMM_VERS = 2.0
CREATION_DATE  = 
ORIGINATOR     = 

OBJECT_NAME    = STARLINK-35966
OBJECT_ID      = 2025-280A
CENTER_NAME    = EARTH
REF_FRAME      = TEME
TIME_SYSTEM    = UTC
MEAN_ELEMENT_THEORY = SGP/SGP4

EPOCH          = 2025-12-26T08:00:01.000224
MEAN_MOTION    = 15.52498141
ECCENTRICITY   = .000321
INCLINATION    = 70.0004
RA_OF_ASC_NODE = 161.1830
ARG_OF_PERICENTER = 267.4370
MEAN_ANOMALY   = 93.1401

EPHEMERIS_TYPE = 0
CLASSIFICATION_TYPE = U
NORAD_CAT_ID   = 66821
ELEMENT_SET_NO = 999
REV_AT_EPOCH   = 508
BSTAR          = .36399E-3
MEAN_MOTION_DOT = .22271E-3
MEAN_MOTION_DDOT = 0

CCSDS_OMM_VERS = 2.0
CREATION_DATE  = 
ORIGINATOR     = 

OBJECT_NAME    = STARLINK-35958
OBJECT_ID      = 2025-280B
CENTER_NAME    = EARTH
REF_FRAME      = TEME
TIME_SYSTEM    = UTC
MEAN_ELEMENT_THEORY = SGP/SGP4

EPOCH          = 2025-12-25T21:09:55.876608
MEAN_MOTION    = 15.52524711
ECCENTRICITY   = .0003381
INCLINATION    = 70.0003
RA_OF_ASC_NODE = 162.4180
ARG_OF_PERICENTER = 268.9240
MEAN_ANOMALY   = 91.1560

EPHEMERIS_TYPE = 0
CLASSIFICATION_TYPE = U
NORAD_CAT_ID   = 66822
ELEMENT_SET_NO = 999
REV_AT_EPOCH   = 497
BSTAR          = .16095E-2
MEAN_MOTION_DOT = .100126E-2
MEAN_MOTION_DDOT = 0

CCSDS_OMM_VERS = 2.0
CREATION_DATE  = 
ORIGINATOR     = 

OBJECT_NAME    = STARLINK-35957
OBJECT_ID      = 2025-280C
CENTER_NAME    = EARTH
REF_FRAME      = TEME
TIME_SYSTEM    = UTC
MEAN_ELEMENT_THEORY = SGP/SGP4

EPOCH          = 2025-12-26T18:48:21.921120
MEAN_MOTION    = 15.52571307
ECCENTRICITY   = .0003444
INCLINATION    = 70.0004
RA_OF_ASC_NODE = 159.9449
ARG_OF_PERICENTER = 280.4261
MEAN_ANOMALY   = 79.6537

EPHEMERIS_TYPE = 0
CLASSIFICATION_TYPE = U
NORAD_CAT_ID   = 66823
ELEMENT_SET_NO = 999
REV_AT_EPOCH   = 511
BSTAR          = .80865E-3
MEAN_MOTION_DOT = .4999E-3
MEAN_MOTION_DDOT = 0

CCSDS_OMM_VERS = 2.0
CREATION_DATE  = 
ORIGINATOR     = 

OBJECT_NAME    = STARLINK-35896
OBJECT_ID      = 2025-280D
CENTER_NAME    = EARTH
REF_FRAME      = TEME
TIME_SYSTEM    = UTC
MEAN_ELEMENT_THEORY = SGP/SGP4

EPOCH          = 2025-12-26T20:20:38.727744
MEAN_MOTION    = 15.52537517
ECCENTRICITY   = .0003134
INCLINATION    = 70.0004
RA_OF_ASC_NODE = 159.7674
ARG_OF_PERICENTER = 276.5826
MEAN_ANOMALY   = 83.5004

EPHEMERIS_TYPE = 0
CLASSIFICATION_TYPE = U
NORAD_CAT_ID   = 66824
ELEMENT_SET_NO = 999
REV_AT_EPOCH   = 512
BSTAR          = .16948E-2
MEAN_MOTION_DOT = .105564E-2
MEAN_MOTION_DDOT = 0

CCSDS_OMM_VERS = 2.0
CREATION_DATE  = 
ORIGINATOR     = 

OBJECT_NAME    = STARLINK-35476
OBJECT_ID      = 2025-280E
CENTER_NAME    = EARTH
REF_FRAME      = TEME
TIME_SYSTEM    = UTC
MEAN_ELEMENT_THEORY = SGP/SGP4

EPOCH          = 2025-12-26T20:20:09.091680
MEAN_MOTION    = 15.52529390
ECCENTRICITY   = .0003329
INCLINATION    = 70.0004
RA_OF_ASC_NODE = 159.7654
ARG_OF_PERICENTER = 275.0224
MEAN_ANOMALY   = 85.0583

EPHEMERIS_TYPE = 0
CLASSIFICATION_TYPE = U
NORAD_CAT_ID   = 66825
ELEMENT_SET_NO = 999
REV_AT_EPOCH   = 512
BSTAR          = .14538E-2
MEAN_MOTION_DOT = .9033E-3
MEAN_MOTION_DDOT = 0

CCSDS_OMM_VERS = 2.0
CREATION_DATE  = 
ORIGINATOR     = 

OBJECT_NAME    = STARLINK-35898
OBJECT_ID      = 2025-280F
CENTER_NAME    = EARTH
REF_FRAME      = TEME
TIME_SYSTEM    = UTC
MEAN_ELEMENT_THEORY = SGP/SGP4

EPOCH          = 2025-12-26T20:19:41.475648
MEAN_MOTION    = 15.52561106
ECCENTRICITY   = .0002977
INCLINATION    = 70.0005
RA_OF_ASC_NODE = 159.7643
ARG_OF_PERICENTER = 268.4686
MEAN_ANOMALY   = 91.6160

EPHEMERIS_TYPE = 0
CLASSIFICATION_TYPE = U
NORAD_CAT_ID   = 66826
ELEMENT_SET_NO = 999
REV_AT_EPOCH   = 512
BSTAR          = .1199E-2
MEAN_MOTION_DOT = .744E-3
MEAN_MOTION_DDOT = 0

CCSDS_OMM_VERS = 2.0
CREATION_DATE  = 
ORIGINATOR     = 

OBJECT_NAME    = STARLINK-35959
OBJECT_ID      = 2025-280G
CENTER_NAME    = EARTH
REF_FRAME      = TEME
TIME_SYSTEM    = UTC
MEAN_ELEMENT_THEORY = SGP/SGP4

EPOCH          = 2025-12-26T20:19:10.667136
MEAN_MOTION    = 15.52571593
ECCENTRICITY   = .0003423
INCLINATION    = 70.0004
RA_OF_ASC_NODE = 159.7628
ARG_OF_PERICENTER = 278.4637
MEAN_ANOMALY   = 81.6161

EPHEMERIS_TYPE = 0
CLASSIFICATION_TYPE = U
NORAD_CAT_ID   = 66827
ELEMENT_SET_NO = 999
REV_AT_EPOCH   = 512
BSTAR          = .21876E-2
MEAN_MOTION_DOT = .137023E-2
MEAN_MOTION_DDOT = 0

CCSDS_OMM_VERS = 2.0
CREATION_DATE  = 
ORIGINATOR     = 

OBJECT_NAME    = STARLINK-35982
OBJECT_ID      = 2025-280H
CENTER_NAME    = EARTH
REF_FRAME      = TEME
TIME_SYSTEM    = UTC
MEAN_ELEMENT_THEORY = SGP/SGP4

EPOCH          = 2025-12-26T20:18:10.729728
MEAN_MOTION    = 15.52563141
ECCENTRICITY   = .0003658
INCLINATION    = 70.0004
RA_OF_ASC_NODE = 159.7603
ARG_OF_PERICENTER = 269.1748
MEAN_ANOMALY   = 90.9020

EPHEMERIS_TYPE = 0
CLASSIFICATION_TYPE = U
NORAD_CAT_ID   = 66828
ELEMENT_SET_NO = 999
REV_AT_EPOCH   = 512
BSTAR          = .15373E-2
MEAN_MOTION_DOT = .95709E-3
MEAN_MOTION_DDOT = 0

CCSDS_OMM_VERS = 2.0
CREATION_DATE  = 
ORIGINATOR     = 

OBJECT_NAME    = STARLINK-36084
OBJECT_ID      = 2025-280J
CENTER_NAME    = EARTH
REF_FRAME      = TEME
TIME_SYSTEM    = UTC
MEAN_ELEMENT_THEORY = SGP/SGP4

EPOCH          = 2025-12-26T18:45:55.213056
MEAN_MOTION    = 15.52481154
ECCENTRICITY   = .0003147
INCLINATION    = 70.0005
RA_OF_ASC_NODE = 159.9379
ARG_OF_PERICENTER = 277.5320
MEAN_ANOMALY   = 82.5509

EPHEMERIS_TYPE = 0
CLASSIFICATION_TYPE = U
NORAD_CAT_ID   = 66829
ELEMENT_SET_NO = 999
REV_AT_EPOCH   = 511
BSTAR          = .14009E-2
MEAN_MOTION_DOT = .86844E-3
MEAN_MOTION_DDOT = 0

CCSDS_OMM_VERS = 2.0
CREATION_DATE  = 
ORIGINATOR     = 

OBJECT_NAME    = STARLINK-35881
OBJECT_ID      = 2025-280K
CENTER_NAME    = EARTH
REF_FRAME      = TEME
TIME_SYSTEM    = UTC
MEAN_ELEMENT_THEORY = SGP/SGP4

EPOCH          = 2025-12-26T20:17:41.044416
MEAN_MOTION    = 15.52582594
ECCENTRICITY   = .0003335
INCLINATION    = 70.0006
RA_OF_ASC_NODE = 159.7584
ARG_OF_PERICENTER = 278.5102
MEAN_ANOMALY   = 81.5706

EPHEMERIS_TYPE = 0
CLASSIFICATION_TYPE = U
NORAD_CAT_ID   = 66830
ELEMENT_SET_NO = 999
REV_AT_EPOCH   = 512
BSTAR          = .21463E-2
MEAN_MOTION_DOT = .134437E-2
MEAN_MOTION_DDOT = 0

CCSDS_OMM_VERS = 2.0
CREATION_DATE  = 
ORIGINATOR     = 

OBJECT_NAME    = STARLINK-35788
OBJECT_ID      = 2025-280L
CENTER_NAME    = EARTH
REF_FRAME      = TEME
TIME_SYSTEM    = UTC
MEAN_ELEMENT_THEORY = SGP/SGP4

EPOCH          = 2025-12-26T18:44:24.653760
MEAN_MOTION    = 15.52570795
ECCENTRICITY   = .0003468
INCLINATION    = 70.0003
RA_OF_ASC_NODE = 159.9347
ARG_OF_PERICENTER = 275.1846
MEAN_ANOMALY   = 84.8945

EPHEMERIS_TYPE = 0
CLASSIFICATION_TYPE = U
NORAD_CAT_ID   = 66831
ELEMENT_SET_NO = 999
REV_AT_EPOCH   = 511
BSTAR          = .18291E-2
MEAN_MOTION_DOT = .114205E-2
MEAN_MOTION_DDOT = 0

CCSDS_OMM_VERS = 2.0
CREATION_DATE  = 
ORIGINATOR     = 

OBJECT_NAME    = STARLINK-35768
OBJECT_ID      = 2025-280M
CENTER_NAME    = EARTH
REF_FRAME      = TEME
TIME_SYSTEM    = UTC
MEAN_ELEMENT_THEORY = SGP/SGP4

EPOCH          = 2025-12-26T18:43:55.111008
MEAN_MOTION    = 15.52555820
ECCENTRICITY   = .0003367
INCLINATION    = 70.0005
RA_OF_ASC_NODE = 159.9322
ARG_OF_PERICENTER = 277.6728
MEAN_ANOMALY   = 82.4076

EPHEMERIS_TYPE = 0
CLASSIFICATION_TYPE = U
NORAD_CAT_ID   = 66832
ELEMENT_SET_NO = 999
REV_AT_EPOCH   = 511
BSTAR          = .1346E-2
MEAN_MOTION_DOT = .83626E-3
MEAN_MOTION_DDOT = 0

