STARLINK-35966          
1 66821U 25280A   25360.33334491  .00022271  00000+0  36399-3 0  9992
2 66821  70.0004 161.1830 0003210 267.4370  93.1401 15.52498141  5082
STARLINK-35958          
1 66822U 25280B   25359.88189672  .00100126  00000+0  16095-2 0  9996
2 66822  70.0003 162.4180 0003381 268.9240  91.1560 15.52524711  4979
STARLINK-35957          
1 66823U 25280C   25360.78358705  .00049990  00000+0  80865-3 0  9991
2 66823  70.0004 159.9449 0003444 280.4261  79.6537 15.52571307  5117
STARLINK-35896          
1 66824U 25280D   25360.84767046  .00105564  00000+0  16948-2 0  9991
2 66824  70.0004 159.7674 0003134 276.5826  83.5004 15.52537517  5124
STARLINK-35476          
1 66825U 25280E   25360.84732745  .00090330  00000+0  14538-2 0  9997
2 66825  70.0004 159.7654 0003329 275.0224  85.0583 15.52529390  5124
STARLINK-35898          
1 66826U 25280F   25360.84700782  .00074400  00000+0  11990-2 0  9993
2 66826  70.0005 159.7643 0002977 268.4686  91.6160 15.52561106  5125
STARLINK-35959          
1 66827U 25280G   25360.84665124  .00137023  00000+0  21876-2 0  9999
2 66827  70.0004 159.7628 0003423 278.4637  81.6161 15.52571593  5123
STARLINK-35982          
1 66828U 25280H   25360.84595752  .00095709  00000+0  15373-2 0  9998
2 66828  70.0004 159.7603 0003658 269.1748  90.9020 15.52563141  5124
STARLINK-36084          
1 66829U 25280J   25360.78188904  .00086844  00000+0  14009-2 0  9994
2 66829  70.0005 159.9379 0003147 277.5320  82.5509 15.52481154  5111
STARLINK-35881          
1 66830U 25280K   25360.84561394  .00134437  00000+0  21463-2 0  9995
2 66830  70.0006 159.7584 0003335 278.5102  81.5706 15.52582594  5127
STARLINK-35788          
1 66831U 25280L   25360.78084090  .00114205  00000+0  18291-2 0  9998
2 66831  70.0003 159.9347 0003468 275.1846  84.8945 15.52570795  5119
STARLINK-35768          
1 66832U 25280M   25360.78049897  .00083626  00000+0  13460-2 0  9990
2 66832  70.0005 159.9322 0003367 277.6728  82.4076 15.52555820  5110
